start=new Date('2022-01-13T00:00:00.000Z').valueOf();
sats=[{"CENTER_NAME":"EARTH","ARG_OF_PERICENTER":"61.2438","DECAY_DATE":null,"TLE_LINE1":"1 47567U 21009V   22012.50276057  .00000829  00000-0  74522-4 0  9993","TLE_LINE2":"2 47567  53.0558  12.5427 0001685  61.2438 298.8720 15.06397653 51830","SEMIMAJOR_AXIS":"6925.356","TIME_SYSTEM":"UTC","RA_OF_ASC_NODE":"12.5427","COUNTRY_CODE":"US","OBJECT_NAME":"STARLINK-1966","OBJECT_TYPE":"PAYLOAD","NORAD_CAT_ID":"47567","EPHEMERIS_TYPE":"0","MEAN_MOTION_DOT":"0.00000829","INCLINATION":"53.0558","APOAPSIS":"548.388","GP_ID":"193734677","ECCENTRICITY":"0.00016850","RCS_SIZE":"LARGE","CLASSIFICATION_TYPE":"U","ELEMENT_SET_NO":"999","FILE":"3270709","OBJECT_ID":"2021-009V","EPOCH":"2022-01-12T12:03:58.513248","PERIAPSIS":"546.054","REV_AT_EPOCH":"5183","REF_FRAME":"TEME","PERIOD":"95.592","MEAN_MOTION":"15.06397653","LAUNCH_DATE":"2021-02-04","MEAN_ELEMENT_THEORY":"SGP4","BSTAR":"0.00007452200000","SITE":"AFETR","MEAN_MOTION_DDOT":"0.0000000000000","MEAN_ANOMALY":"298.8720"},{"FILE":"3270709","OBJECT_ID":"2021-009W","EPOCH":"2022-01-12T11:05:35.636928","PERIAPSIS":"546.198","REV_AT_EPOCH":"5183","PERIOD":"95.592","REF_FRAME":"TEME","MEAN_MOTION":"15.06397657","LAUNCH_DATE":"2021-02-04","BSTAR":"-0.00003764000000","MEAN_ELEMENT_THEORY":"SGP4","SITE":"AFETR","MEAN_MOTION_DDOT":"0.0000000000000","MEAN_ANOMALY":"299.7459","CENTER_NAME":"EARTH","ARG_OF_PERICENTER":"60.3677","TLE_LINE1":"1 47568U 21009W   22012.46221802 -.00000842  00000-0 -37640-4 0  9994","DECAY_DATE":null,"TLE_LINE2":"2 47568  53.0555  12.7199 0001477  60.3677 299.7459 15.06397657 51833","SEMIMAJOR_AXIS":"6925.356","TIME_SYSTEM":"UTC","RA_OF_ASC_NODE":"12.7199","COUNTRY_CODE":"US","INCLINATION":"53.0555","MEAN_MOTION_DOT":"-0.00000842","OBJECT_TYPE":"PAYLOAD","EPHEMERIS_TYPE":"0","OBJECT_NAME":"STARLINK-1967","NORAD_CAT_ID":"47568","ECCENTRICITY":"0.00014770","GP_ID":"193734428","APOAPSIS":"548.244","RCS_SIZE":"LARGE","CLASSIFICATION_TYPE":"U","ELEMENT_SET_NO":"999"},{"MEAN_MOTION_DOT":"0.00002486","INCLINATION":"53.0531","OBJECT_TYPE":"PAYLOAD","NORAD_CAT_ID":"47569","EPHEMERIS_TYPE":"0","OBJECT_NAME":"STARLINK-1968","GP_ID":"193733674","ECCENTRICITY":"0.00025900","APOAPSIS":"441.476","RA_OF_ASC_NODE":"331.3390","COUNTRY_CODE":"US","ELEMENT_SET_NO":"999","RCS_SIZE":"LARGE","CLASSIFICATION_TYPE":"U","TLE_LINE1":"1 47569U 21009X   22012.36753972  .00002486  00000-0  66566-4 0  9995","DECAY_DATE":null,"CENTER_NAME":"EARTH","ARG_OF_PERICENTER":"22.6887","SEMIMAJOR_AXIS":"6817.845","TIME_SYSTEM":"UTC","TLE_LINE2":"2 47569  53.0531 331.3390 0002590  22.6887 337.4231 15.42169357 52419","BSTAR":"0.00006656600000","MEAN_ELEMENT_THEORY":"SGP4","SITE":"AFETR","LAUNCH_DATE":"2021-02-04","MEAN_ANOMALY":"337.4231","MEAN_MOTION_DDOT":"0.0000000000000","EPOCH":"2022-01-12T08:49:15.431808","PERIAPSIS":"437.944","FILE":"3270709","OBJECT_ID":"2021-009X","PERIOD":"93.375","REF_FRAME":"TEME","MEAN_MOTION":"15.42169357","REV_AT_EPOCH":"5241"},{"SEMIMAJOR_AXIS":"6925.301","TIME_SYSTEM":"UTC","TLE_LINE2":"2 47570  53.0542 332.1556 0001962  68.1681 291.9517 15.06415412 52412","TLE_LINE1":"1 47570U 21009Y   22012.58754146  .00001537  00000-0  12203-3 0  9999","DECAY_DATE":null,"CENTER_NAME":"EARTH","ARG_OF_PERICENTER":"68.1681","ELEMENT_SET_NO":"999","RCS_SIZE":"LARGE","CLASSIFICATION_TYPE":"U","INCLINATION":"53.0542","MEAN_MOTION_DOT":"0.00001537","OBJECT_TYPE":"PAYLOAD","EPHEMERIS_TYPE":"0","OBJECT_NAME":"STARLINK-1969","NORAD_CAT_ID":"47570","ECCENTRICITY":"0.00019620","GP_ID":"193733926","APOAPSIS":"548.525","RA_OF_ASC_NODE":"332.1556","COUNTRY_CODE":"US","PERIOD":"95.591","REF_FRAME":"TEME","MEAN_MOTION":"15.06415412","REV_AT_EPOCH":"5241","EPOCH":"2022-01-12T14:06:03.582144","PERIAPSIS":"545.808","FILE":"3270709","OBJECT_ID":"2021-009Y","MEAN_ANOMALY":"291.9517","MEAN_MOTION_DDOT":"0.0000000000000","BSTAR":"0.00012203000000","MEAN_ELEMENT_THEORY":"SGP4","SITE":"AFETR","LAUNCH_DATE":"2021-02-04"},{"ARG_OF_PERICENTER":"73.7218","CENTER_NAME":"EARTH","DECAY_DATE":null,"TLE_LINE1":"1 47571U 21009Z   22012.59767550 -.00001064  00000-0 -52537-4 0  9996","TLE_LINE2":"2 47571  53.0560 342.1176 0002004  73.7218 286.3992 15.06401320 52270","TIME_SYSTEM":"UTC","SEMIMAJOR_AXIS":"6925.345","COUNTRY_CODE":"US","RA_OF_ASC_NODE":"342.1176","ECCENTRICITY":"0.00020040","GP_ID":"193734178","APOAPSIS":"548.597","MEAN_MOTION_DOT":"-0.00001064","INCLINATION":"53.0560","OBJECT_NAME":"STARLINK-1970","OBJECT_TYPE":"PAYLOAD","EPHEMERIS_TYPE":"0","NORAD_CAT_ID":"47571","CLASSIFICATION_TYPE":"U","RCS_SIZE":"LARGE","ELEMENT_SET_NO":"999","OBJECT_ID":"2021-009Z","FILE":"3270709","PERIAPSIS":"545.822","EPOCH":"2022-01-12T14:20:39.163200","REV_AT_EPOCH":"5227","MEAN_MOTION":"15.06401320","PERIOD":"95.592","REF_FRAME":"TEME","LAUNCH_DATE":"2021-02-04","SITE":"AFETR","BSTAR":"-0.00005253700000","MEAN_ELEMENT_THEORY":"SGP4","MEAN_MOTION_DDOT":"0.0000000000000","MEAN_ANOMALY":"286.3992"},{"MEAN_MOTION":"15.06405986","REF_FRAME":"TEME","PERIOD":"95.592","REV_AT_EPOCH":"5223","PERIAPSIS":"545.794","EPOCH":"2022-01-12T07:31:57.659520","OBJECT_ID":"2021-009AA","FILE":"3270709","MEAN_ANOMALY":"292.9797","MEAN_MOTION_DDOT":"0.0000000000000","SITE":"AFETR","MEAN_ELEMENT_THEORY":"SGP4","BSTAR":"-0.00005023400000","LAUNCH_DATE":"2021-02-04","SEMIMAJOR_AXIS":"6925.330","TIME_SYSTEM":"UTC","TLE_LINE2":"2 47572  53.0584 343.3793 0002023  67.1405 292.9797 15.06405986 52235","DECAY_DATE":null,"TLE_LINE1":"1 47572U 21009AA  22012.31386180 -.00001030  00000-0 -50234-4 0  9998","ARG_OF_PERICENTER":"67.1405","CENTER_NAME":"EARTH","ELEMENT_SET_NO":"999","CLASSIFICATION_TYPE":"U","RCS_SIZE":"LARGE","APOAPSIS":"548.596","GP_ID":"193734928","ECCENTRICITY":"0.00020230","OBJECT_TYPE":"PAYLOAD","NORAD_CAT_ID":"47572","EPHEMERIS_TYPE":"0","OBJECT_NAME":"STARLINK-1971","MEAN_MOTION_DOT":"-0.00001030","INCLINATION":"53.0584","COUNTRY_CODE":"US","RA_OF_ASC_NODE":"343.3793"},{"MEAN_ANOMALY":"297.0020","MEAN_MOTION_DDOT":"0.0000000000000","MEAN_ELEMENT_THEORY":"SGP4","BSTAR":"-0.00008062300000","SITE":"AFETR","LAUNCH_DATE":"2021-02-04","REF_FRAME":"TEME","PERIOD":"95.592","MEAN_MOTION":"15.06397406","REV_AT_EPOCH":"5222","EPOCH":"2022-01-12T07:00:07.023744","PERIAPSIS":"546.008","FILE":"3270709","OBJECT_ID":"2021-009AB","ELEMENT_SET_NO":"999","RCS_SIZE":"LARGE","CLASSIFICATION_TYPE":"U","OBJECT_TYPE":"PAYLOAD","NORAD_CAT_ID":"47573","EPHEMERIS_TYPE":"0","OBJECT_NAME":"STARLINK-1975","INCLINATION":"53.0568","MEAN_MOTION_DOT":"-0.00001482","APOAPSIS":"548.435","GP_ID":"193733175","ECCENTRICITY":"0.00017520","RA_OF_ASC_NODE":"343.4767","COUNTRY_CODE":"US","SEMIMAJOR_AXIS":"6925.357","TIME_SYSTEM":"UTC","TLE_LINE2":"2 47573  53.0568 343.4767 0001752  63.1148 297.0020 15.06397406 52229","DECAY_DATE":null,"TLE_LINE1":"1 47573U 21009AB  22012.29174796 -.00001482  00000-0 -80623-4 0  9990","CENTER_NAME":"EARTH","ARG_OF_PERICENTER":"63.1148"},{"LAUNCH_DATE":"2021-02-04","MEAN_ELEMENT_THEORY":"SGP4","BSTAR":"-0.00000844080000","SITE":"AFETR","MEAN_MOTION_DDOT":"0.0000000000000","MEAN_ANOMALY":"296.2525","FILE":"3270709","OBJECT_ID":"2021-009AC","EPOCH":"2022-01-12T12:09:17.068320","PERIAPSIS":"546.079","REV_AT_EPOCH":"5183","REF_FRAME":"TEME","PERIOD":"95.592","MEAN_MOTION":"15.06398017","RA_OF_ASC_NODE":"12.5165","COUNTRY_CODE":"US","OBJECT_TYPE":"PAYLOAD","EPHEMERIS_TYPE":"0","OBJECT_NAME":"STARLINK-1976","NORAD_CAT_ID":"47574","INCLINATION":"53.0562","MEAN_MOTION_DOT":"-0.00000407","APOAPSIS":"548.360","ECCENTRICITY":"0.00016470","GP_ID":"193733427","RCS_SIZE":"LARGE","CLASSIFICATION_TYPE":"U","ELEMENT_SET_NO":"999","CENTER_NAME":"EARTH","ARG_OF_PERICENTER":"63.8633","TLE_LINE1":"1 47574U 21009AC  22012.50644755 -.00000407  00000-0 -84408-5 0  9994","DECAY_DATE":null,"TLE_LINE2":"2 47574  53.0562  12.5165 0001647  63.8633 296.2525 15.06398017 51835","SEMIMAJOR_AXIS":"6925.355","TIME_SYSTEM":"UTC"},{"MEAN_MOTION":"15.06398102","REF_FRAME":"TEME","PERIOD":"95.592","REV_AT_EPOCH":"5182","PERIAPSIS":"546.201","EPOCH":"2022-01-12T10:17:49.904448","OBJECT_ID":"2021-009AD","FILE":"3270709","MEAN_ANOMALY":"292.9392","MEAN_MOTION_DDOT":"0.0000000000000","SITE":"AFETR","MEAN_ELEMENT_THEORY":"SGP4","BSTAR":"-0.00006880000000","LAUNCH_DATE":"2021-02-04","SEMIMAJOR_AXIS":"6925.354","TIME_SYSTEM":"UTC","TLE_LINE2":"2 47575  53.0566  12.8636 0001470  67.1752 292.9392 15.06398102 51828","DECAY_DATE":null,"TLE_LINE1":"1 47575U 21009AD  22012.42904982 -.00001306  00000-0 -68800-4 0  9993","ARG_OF_PERICENTER":"67.1752","CENTER_NAME":"EARTH","ELEMENT_SET_NO":"999","CLASSIFICATION_TYPE":"U","RCS_SIZE":"LARGE","APOAPSIS":"548.237","GP_ID":"193734678","ECCENTRICITY":"0.00014700","OBJECT_TYPE":"PAYLOAD","EPHEMERIS_TYPE":"0","NORAD_CAT_ID":"47575","OBJECT_NAME":"STARLINK-1977","MEAN_MOTION_DOT":"-0.00001306","INCLINATION":"53.0566","COUNTRY_CODE":"US","RA_OF_ASC_NODE":"12.8636"},{"SEMIMAJOR_AXIS":"6925.351","TIME_SYSTEM":"UTC","TLE_LINE2":"2 47576  53.0545 332.1183 0001956  55.2791 304.8382 15.06399050 52412","TLE_LINE1":"1 47576U 21009AE  22012.59490475  .00000669  00000-0  63809-4 0  9992","DECAY_DATE":null,"ARG_OF_PERICENTER":"55.2791","CENTER_NAME":"EARTH","ELEMENT_SET_NO":"999","CLASSIFICATION_TYPE":"U","RCS_SIZE":"LARGE","APOAPSIS":"548.571","ECCENTRICITY":"0.00019560","GP_ID":"193734429","EPHEMERIS_TYPE":"0","OBJECT_TYPE":"PAYLOAD","OBJECT_NAME":"STARLINK-1978","NORAD_CAT_ID":"47576","INCLINATION":"53.0545","MEAN_MOTION_DOT":"0.00000669","COUNTRY_CODE":"US","RA_OF_ASC_NODE":"332.1183","MEAN_MOTION":"15.06399050","REF_FRAME":"TEME","PERIOD":"95.592","REV_AT_EPOCH":"5241","PERIAPSIS":"545.862","EPOCH":"2022-01-12T14:16:39.770400","OBJECT_ID":"2021-009AE","FILE":"3270709","MEAN_ANOMALY":"304.8382","MEAN_MOTION_DDOT":"0.0000000000000","SITE":"AFETR","MEAN_ELEMENT_THEORY":"SGP4","BSTAR":"0.00006380900000","LAUNCH_DATE":"2021-02-04"}];
